
AEHF-3 (USA 246)
1 39256U 13050A   26170.26285541  .00000021  00000+0  00000+0 0  9994
2 39256   5.2983  67.1653 0087827 188.0190 342.6611  1.00273110 45671

AMOS-4
1 39237U 13045A   26170.12167858  .00000001  00000+0  00000+0 0  9990
2 39237   0.0137 292.6071 0002599 128.8625 314.6955  1.00272062 46970

APRIZESAT 7
1 39416U 13066A   26170.30068819  .00000826  00000+0  87147-4 0  9996
2 39416  97.7709 123.4902 0035164 202.1029 157.8676 14.91567872681544

APRIZESAT 8
1 39425U 13066K   26170.29380600  .00000701  00000+0  81917-4 0  9990
2 39425  97.8221 117.7323 0044379 279.3934  80.2266 14.87655918679989

ASTRA 2E
1 39285U 13056A   26170.25700108  .00000144  00000+0  00000+0 0  9998
2 39285   0.0735 316.2991 0002789 144.6480 287.5682  1.00273538 46432

CASSIOPE
1 39265U 13055A   26170.26127908  .00046101 -46103-6  50203-3 0  9996
2 39265  80.9136  64.2027 0292110  55.4962 307.3484 15.25366701667982

CUBEBUG-2 (LO-74)
1 39440U 13066AA  26170.27371325  .00004250  00000+0  39344-3 0  9998
2 39440  97.8910 119.2605 0058255  22.3553 338.0186 14.93777947677305

DUBAISAT-2
1 39419U 13066D   26170.25733763  .00003408  00000+0  21215-3 0  9992
2 39419  97.4565 160.3479 0012023  34.0735 326.1264 15.10193630686704

FENGYUN 3C
1 39260U 13052A   26170.23469249  .00000069  00000+0  56186-4 0  9990
2 39260  98.4987 144.0155 0015134  22.0007 338.1814 14.15755510658856

FM-6
1 39360U 13058A   26170.15706777  .00000000  00000+0  00000+0 0  9992
2 39360   0.0346  50.7410 0002648 119.5495  37.3371  1.00253413 46099

GOMX-1
1 39430U 13066Q   26170.29685231  .00001368  00000+0  21021-3 0  9993
2 39430  97.6475  10.6258 0130121  70.8662 290.6579 14.69466237670221

GONETS-M 5
1 39249U 13048A   26170.28832747  .00000027  00000+0  12296-3 0  9991
2 39249  82.4831 342.0714 0016187 205.6228 154.4051 12.42891935579144

GONETS-M 6
1 39250U 13048B   26170.25685888 -.00000082  00000+0 -65980-3 0  9993
2 39250  82.4859 342.9876 0018296 240.1527 119.7734 12.43030647579208

GONETS-M 7
1 39251U 13048C   26170.25124723 -.00000123  00000+0 -96049-3 0  9996
2 39251  82.4898 345.0179 0016968 207.0750 152.9446 12.42914261579094

GSAT-7
1 39234U 13044B   26170.12341192 -.00000083  00000+0  00000+0 0  9992
2 39234   0.0890  93.2022 0003048 191.0828 101.4534  1.00270688 45270

HISAKI (SPRINT-A)
1 39253U 13049A   26170.26471719  .00000101  00000+0  52487-4 0  9993
2 39253  29.7178 209.4503 0136848  33.6977 327.2209 13.55544904631708

OPTOS
1 39420U 13066E   26170.18116405  .00001023  00000+0  15280-3 0  9990
2 39420  97.6807  34.9289 0116767   5.8708 354.3837 14.72335241671816

POPACS 2
1 39269U 13055E   26170.25665990  .00012578  00000+0  21242-3 0  9997
2 39269  80.9911 141.8234 0416748 187.1255 172.3929 14.91258090663525

POPACS 3
1 39270U 13055F   26169.90599161  .00007750  00000+0  18200-3 0  9991
2 39270  81.0000 227.3242 0552001  64.7663 300.9692 14.56148407638803

RADUGA-1M 3
1 39375U 13062A   26169.79836442  .00000144  00000+0  00000+0 0  9993
2 39375   5.9627  72.3351 0001803 267.8367 249.2637  1.00273348 46124

SHIJIAN-16 (SJ-16)
1 39358U 13057A   26170.31724275  .00000322  00000+0  34060-4 0  9994
2 39358  74.9728 352.6482 0016746 225.8357 134.1456 14.92606779686660

SKYSAT-A
1 39418U 13066C   26170.10915703  .00001924  00000+0  11217-3 0  9993
2 39418  97.3810 219.4453 0019977 310.4094  49.5394 15.12983347688770

STSAT-3
1 39422U 13066G   26170.24352609  .00002936  00000+0  22382-3 0  9992
2 39422  97.6229 140.0989 0011100  39.4906 320.7126 15.02767840684517

TRITON-1
1 39427U 13066M   26170.25403347  .00001802  00000+0  22063-3 0  9991
2 39427  97.8248  80.0142 0088564 227.0667 132.3092 14.81713216674394

WNISAT-1
1 39423U 13066H   26170.13263155  .00000733  00000+0  14226-3 0  9999
2 39423  97.7204 319.1508 0162074 225.4216 133.3662 14.58065199667013

YAOGAN-17 01A
1 39239U 13046A   26170.30998201  .00000036  00000+0  12295-3 0  9998
2 39239  63.3866  84.7632 0426511  11.8983 349.1745 13.45507441628574

YAOGAN-17 01B
1 39240U 13046B   26170.28094152  .00000072  00000+0  15801-3 0  9995
2 39240  63.3877  85.4618 0426644  11.4270 349.6078 13.45474317628616

YAOGAN-17 01C
1 39241U 13046C   26170.32763096  .00000169  00000+0  25175-3 0  9993
2 39241  63.3873  84.1379 0427442  11.5146 349.5290 13.45480914628663

YAOGAN-19
1 39410U 13065A   26170.29319594  .00000602  00000+0  17088-2 0  9993
2 39410 100.1117 146.5988 0010204  82.7501 277.4772 13.15584786603925

ZACUBE-1 (TSHEPISOSAT)
1 39417U 13066B   26170.14032462  .00002311  00000+0  18198-3 0  9994
2 39417  97.8075 132.4874 0041049 240.9478 118.7631 15.01197255681023
