OBJECT_NAME,OBJECT_ID,EPOCH,MEAN_MOTION,ECCENTRICITY,INCLINATION,RA_OF_ASC_NODE,ARG_OF_PERICENTER,MEAN_ANOMALY,EPHEMERIS_TYPE,CLASSIFICATION_TYPE,NORAD_CAT_ID,ELEMENT_SET_NO,REV_AT_EPOCH,BSTAR,MEAN_MOTION_DOT,MEAN_MOTION_DDOT
GSAT-7,2013-044B,2026-06-19T02:57:42.789888,1.00270688,.00030484,0.0890,93.2022,191.0828,101.4534,0,U,39234,999,4527,0,-.83E-6,0
AMOS-4,2013-045A,2026-06-19T02:55:13.029312,1.00272062,.00025995,0.0137,292.6071,128.8625,314.6955,0,U,39237,999,4697,0,.1E-7,0
YAOGAN-17 01A,2013-046A,2026-06-19T07:26:22.445664,13.45507441,.04265118,63.3866,84.7632,11.8983,349.1745,0,U,39239,999,62857,.12294671E-3,.36E-6,0
YAOGAN-17 01B,2013-046B,2026-06-19T06:44:33.347328,13.45474317,.04266441,63.3877,85.4618,11.4270,349.6078,0,U,39240,999,62861,.15801143E-3,.72E-6,0
YAOGAN-17 01C,2013-046C,2026-06-19T07:51:47.314944,13.45480914,.04274426,63.3873,84.1379,11.5146,349.5290,0,U,39241,999,62866,.25174685E-3,.169E-5,0
GONETS-M 5,2013-048A,2026-06-19T06:55:11.493408,12.42891935,.00161872,82.4831,342.0714,205.6228,154.4051,0,U,39249,999,57914,.12295817E-3,.27E-6,0
GONETS-M 6,2013-048B,2026-06-19T06:09:52.607232,12.43030647,.00182967,82.4859,342.9876,240.1527,119.7734,0,U,39250,999,57920,-.65979806E-3,-.82E-6,0
GONETS-M 7,2013-048C,2026-06-19T06:01:47.760672,12.42914261,.00169682,82.4898,345.0179,207.0750,152.9446,0,U,39251,999,57909,-.96048741E-3,-.123E-5,0
HISAKI (SPRINT-A),2013-049A,2026-06-19T06:21:11.565216,13.55544904,.01368481,29.7178,209.4503,33.6977,327.2209,0,U,39253,999,63170,.52486531E-4,.101E-5,0
AEHF-3 (USA 246),2013-050A,2026-06-19T06:18:30.707424,1.00273110,.00878278,5.2983,67.1653,188.0190,342.6611,0,U,39256,999,4567,0,.21E-6,0
FENGYUN 3C,2013-052A,2026-06-19T05:37:57.431136,14.15755510,.00151343,98.4987,144.0155,22.0007,338.1814,0,U,39260,999,65885,.56186003E-4,.69E-6,0
CASSIOPE,2013-055A,2026-06-19T06:16:14.512512,15.25366701,.02921109,80.9136,64.2027,55.4962,307.3484,0,U,39265,999,66798,.50202868E-3,.46101E-3,-.46103E-6
POPACS 2,2013-055E,2026-06-19T06:09:35.415360,14.91258090,.04167483,80.9911,141.8234,187.1255,172.3929,0,U,39269,999,66352,.21242368E-3,.12578E-3,0
POPACS 3,2013-055F,2026-06-18T21:44:37.675104,14.56148407,.0552001,81.0000,227.3242,64.7663,300.9692,0,U,39270,999,63880,.182E-3,.775E-4,0
ASTRA 2E,2013-056A,2026-06-19T06:10:04.893312,1.00273538,.00027897,0.0735,316.2991,144.6480,287.5682,0,U,39285,999,4643,0,.144E-5,0
SHIJIAN-16 (SJ-16),2013-057A,2026-06-19T07:36:49.773600,14.92606779,.00167462,74.9728,352.6482,225.8357,134.1456,0,U,39358,999,68666,.34059603E-4,.322E-5,0
FM-6,2013-058A,2026-06-19T03:46:10.655328,1.00253413,.00026488,0.0346,50.7410,119.5495,37.3371,0,U,39360,999,4609,0,0,0
RADUGA-1M 3,2013-062A,2026-06-18T19:09:38.685888,1.00273348,.00018039,5.9627,72.3351,267.8367,249.2637,0,U,39375,999,4612,0,.144E-5,0
YAOGAN-19,2013-065A,2026-06-19T07:02:12.129216,13.15584786,.00102046,100.1117,146.5988,82.7501,277.4772,0,U,39410,999,60392,.17087674E-2,.602E-5,0
APRIZESAT 7,2013-066A,2026-06-19T07:12:59.459616,14.91567872,.00351646,97.7709,123.4902,202.1029,157.8676,0,U,39416,999,68154,.87147166E-4,.826E-5,0
ZACUBE-1 (TSHEPISOSAT),2013-066B,2026-06-19T03:22:04.047168,15.01197255,.00410495,97.8075,132.4874,240.9478,118.7631,0,U,39417,999,68102,.18197503E-3,.2311E-4,0
SKYSAT-A,2013-066C,2026-06-19T02:37:11.167392,15.12983347,.00199771,97.3810,219.4453,310.4094,49.5394,0,U,39418,999,68877,.11216999E-3,.1924E-4,0
DUBAISAT-2,2013-066D,2026-06-19T06:10:33.971232,15.10193630,.00120232,97.4565,160.3479,34.0735,326.1264,0,U,39419,999,68670,.21215065E-3,.3408E-4,0
OPTOS,2013-066E,2026-06-19T04:20:52.573920,14.72335241,.0116767,97.6807,34.9289,5.8708,354.3837,0,U,39420,999,67181,.15280342E-3,.1023E-4,0
STSAT-3,2013-066G,2026-06-19T05:50:40.654176,15.02767840,.00111,97.6229,140.0989,39.4906,320.7126,0,U,39422,999,68451,.22381924E-3,.2936E-4,0
WNISAT-1,2013-066H,2026-06-19T03:10:59.365920,14.58065199,.01620746,97.7204,319.1508,225.4216,133.3662,0,U,39423,999,66701,.1422641E-3,.733E-5,0
APRIZESAT 8,2013-066K,2026-06-19T07:03:04.838400,14.87655918,.00443792,97.8221,117.7323,279.3934,80.2266,0,U,39425,999,67998,.81916867E-4,.701E-5,0
TRITON-1,2013-066M,2026-06-19T06:05:48.491808,14.81713216,.00885648,97.8248,80.0142,227.0667,132.3092,0,U,39427,999,67439,.22063487E-3,.1802E-4,0
GOMX-1,2013-066Q,2026-06-19T07:07:28.039584,14.69466237,.01301215,97.6475,10.6258,70.8662,290.6579,0,U,39430,999,67022,.21021487E-3,.1368E-4,0
CUBEBUG-2 (LO-74),2013-066AA,2026-06-19T06:34:08.824800,14.93777947,.00582556,97.8910,119.2605,22.3553,338.0186,0,U,39440,999,67730,.39344021E-3,.425E-4,0
